ONEWEB-0306             
1 49188U 21083C   23238.90091870 -.00000145  00000+0 -40152-3 0  9992
2 49188  87.9219 179.3584 0001725  78.1051 282.0275 13.18688057 94895
ONEWEB-0307             
1 49189U 21083D   23238.80911912 -.00000250  00000+0 -71989-3 0  9999
2 49189  87.9090 164.2151 0002074  79.2258 280.9105 13.13469375 96329
ONEWEB-0320             
1 49190U 21083E   23238.90726161  .00000010  00000+0 -77161-5 0  9995
2 49190  87.9224 179.3798 0002149  80.2905 279.8470 13.18684371 94856
ONEWEB-0321             
1 49191U 21083F   23238.68178505  .00000097  00000+0  20766-3 0  9995
2 49191  87.9206 118.6310 0001874  89.6447 270.4901 13.20770422101469
ONEWEB-0322             
1 49192U 21083G   23238.80486546  .00000161  00000+0  40648-3 0  9990
2 49192  87.9088 164.2059 0002616  83.7546 276.3881 13.13471095 96310
ONEWEB-0324             
1 49193U 21083H   23238.89250051  .00000034  00000+0  52432-4 0  9994
2 49193  87.9220 179.3634 0001895  66.8818 293.2513 13.18687053 94874
ONEWEB-0325             
1 49194U 21083J   23238.89669991  .00000174  00000+0  40868-3 0  9996
2 49194  87.9401 179.2410 0001793  67.2724 292.8597 13.18689167 94881
ONEWEB-0326             
1 49195U 21083K   23238.83560085  .00000065  00000+0  13308-3 0  9993
2 49195  87.9224 179.3638 0001842  58.7579 301.3733 13.18685150 94860
